1 44968U 20001BG  22365.10660267  .00003962  00000-0  28460-3 0  9993
2 44968  53.0545 134.6369 0001380  69.3416 290.7721 15.06416163164886
1 44968U 20001BG  22365.10660267  .00003962  00000-0  28460-3 0  9993
2 44968  53.0545 134.6369 0001380  69.3416 290.7721 15.06416163164886
1 44968U 20001BG  22365.63739111  .00002340  00000-0  17595-3 0  9992
2 44968  53.0544 132.2545 0001247  56.1349 303.9758 15.06396336164961
1 44968U 20001BG  23001.63261723 -.00008946  00000-0 -58307-3 0  9995
2 44968  53.0536 127.7874 0001472  61.0465 299.0671 15.06360017165114
1 44968U 20001BG  23001.63261723 -.00008946  00000-0 -58307-3 0  9995
2 44968  53.0536 127.7874 0001472  61.0465 299.0671 15.06360017165114
1 44968U 20001BG  23001.76530262 -.00003499  00000-0 -21621-3 0  9993
2 44968  53.0537 127.1915 0001471  61.2610 298.8526 15.06383320165138
1 44968U 20001BG  23002.03069131 -.00002794  00000-0 -16883-3 0  9997
2 44968  53.0548 126.0011 0001483  65.4463 294.6680 15.06385417165178
1 44968U 20001BG  23002.62781231  .00002397  00000-0  17981-3 0  9991
2 44968  53.0538 123.3196 0001474  57.7708 302.3424 15.06395380165260
1 44968U 20001BG  23002.62781231  .00002397  00000-0  17981-3 0  9991
2 44968  53.0538 123.3196 0001474  57.7708 302.3424 15.06395380165260
1 44968U 20001BG  23003.42398121  .00007514  00000-0  52287-3 0  9996
2 44968  53.0538 119.7454 0001515  63.7896 296.3249 15.06394980165382
1 44968U 20001BG  23003.42398121  .00007514  00000-0  52287-3 0  9996
2 44968  53.0538 119.7454 0001515  63.7896 296.3249 15.06394980165382
1 44968U 20001BG  23004.28648533 -.00000133  00000-0  10009-4 0  9994
2 44968  53.0527 115.8728 0001696  67.7249 292.3920 15.06399680165516
1 44968U 20001BG  23004.61821632  .00003439  00000-0  24957-3 0  9991
2 44968  53.0549 114.3875 0002273  45.8470 314.2706 15.06412273165567
1 44968U 20001BG  23004.61821632  .00003439  00000-0  24957-3 0  9991
2 44968  53.0549 114.3875 0002273  45.8470 314.2706 15.06412273165567
1 44968U 20001BG  23005.54705275  .00010206  00000-0  70243-3 0  9997
2 44968  53.0538 110.2145 0001661  61.5721 298.5435 15.06433983165704
1 44968U 20001BG  23005.54705275  .00010206  00000-0  70243-3 0  9997
2 44968  53.0538 110.2145 0001661  61.5721 298.5435 15.06433983165704
1 44968U 20001BG  23006.27687474 -.00011356  00000-0 -74490-3 0  9995
2 44968  53.0542 106.9399 0001918  68.4598 291.6595 15.06387602165814
1 44968U 20001BG  23006.67496100 -.00006356  00000-0 -40832-3 0  9990
2 44968  53.0547 105.1519 0001936  76.2893 283.8311 15.06386196165871
1 44968U 20001BG  23007.27209497 -.00003393  00000-0 -20914-3 0  9995
2 44968  53.0539 102.4709 0001804  78.5298 281.5894 15.06375488165964
1 44968U 20001BG  23007.53748669  .00000783  00000-0  71491-4 0  9998
2 44968  53.0539 101.2802 0001604  75.9912 284.1255 15.06377699166009
1 44968U 20001BG  23007.53748669  .00000783  00000-0  71491-4 0  9998
2 44968  53.0539 101.2802 0001604  75.9912 284.1255 15.06377699166009
1 44968U 20001BG  23008.53269489  .00010742  00000-0  73892-3 0  9999
2 44968  53.0543  96.8132 0001298  72.4292 287.6839 15.06401497166157
1 44968U 20001BG  23008.53269489  .00010742  00000-0  73892-3 0  9999
2 44968  53.0543  96.8132 0001298  72.4292 287.6839 15.06401497166157
1 44968U 20001BG  23008.93077533  .00006253  00000-0  43828-3 0  9998
2 44968  53.0549  95.0243 0001877  78.3303 281.7896 15.06403108166214
1 44968U 20001BG  23009.59424056  .00005638  00000-0  39695-3 0  9990
2 44968  53.0538  92.0469 0001585  79.5624 280.5544 15.06410571166314
1 44968U 20001BG  23009.59424056  .00005638  00000-0  39695-3 0  9990
2 44968  53.0538  92.0469 0001585  79.5624 280.5544 15.06410571166314
1 44968U 20001BG  23009.92597650 -.00001740  00000-0 -97932-4 0  9999
2 44968  53.0539  90.5580 0001848  79.1693 280.9504 15.06396735166366
1 44968U 20001BG  23010.19136536 -.00001948  00000-0 -11191-3 0  9994
2 44968  53.0534  89.3667 0001770  78.2168 281.9020 15.06394812166407
1 44968U 20001BG  23010.52310016  .00000084  00000-0  24531-4 0  9999
2 44968  53.0544  87.8779 0001397  80.8734 279.2413 15.06398186166457
1 44968U 20001BG  23011.58464556  .00005248  00000-0  37080-3 0  9994
2 44968  53.0532  83.1117 0001261  88.4752 271.6382 15.06411104166618
1 44968U 20001BG  23011.58464556  .00005248  00000-0  37080-3 0  9994
2 44968  53.0532  83.1117 0001261  88.4752 271.6382 15.06411104166618
1 44968U 20001BG  23012.18177545  .00002836  00000-0  20921-3 0  9996
2 44968  53.0542  80.4323 0001719  76.3922 283.7259 15.06398330166703
1 44968U 20001BG  23012.91158955  .00002870  00000-0  21149-3 0  9992
2 44968  53.0535  77.1540 0001451  85.7356 274.3799 15.06399702166818
1 44968U 20001BG  23013.50870836  .00003495  00000-0  25336-3 0  9993
2 44968  53.0537  74.4731 0001524  85.7910 274.3253 15.06407244166905
1 44968U 20001BG  23013.50870836  .00003495  00000-0  25336-3 0  9993
2 44968  53.0537  74.4731 0001524  85.7910 274.3253 15.06407244166905
1 44968U 20001BG  23014.17218092  .00003494  00000-0  25336-3 0  9996
2 44968  53.0535  71.4955 0001703  82.6430 277.4752 15.06402067167008
1 44968U 20001BG  23015.16738535 -.00000448  00000-0 -11169-4 0  9993
2 44968  53.0531  67.0268 0001840 102.6423 257.4772 15.06393091167151
1 44968U 20001BG  23015.49911850  .00006148  00000-0  43129-3 0  9993
2 44968  53.0541  65.5393 0001727  94.1107 266.0080 15.06400580167208
1 44968U 20001BG  23015.83085415  .00006218  00000-0  43601-3 0  9993
2 44968  53.0548  64.0496 0001741  94.9051 265.2137 15.06398287167254
1 44968U 20001BG  23016.16258626  .00006136  00000-0  43039-3 0  9990
2 44968  53.0550  62.5600 0001664  97.3398 262.7780 15.06404945167303
1 44968U 20001BG  23016.42797090  .00008931  00000-0  61747-3 0  9993
2 44968  53.0555  61.3686 0001773  95.6869 264.4322 15.06412480167342
1 44968U 20001BG  23016.82605323  .00003058  00000-0  22407-3 0  9999
2 44968  53.0546  59.5819 0001714  76.3148 283.8031 15.06404524167409
1 44968U 20001BG  23017.15779641 -.00007633  00000-0 -49434-3 0  9995
2 44968  53.0542  58.0925 0001748  81.2131 278.9056 15.06376998167451
1 44968U 20001BG  23017.15779641 -.00007633  00000-0 -49434-3 0  9995
2 44968  53.0542  58.0925 0001748  81.2131 278.9056 15.06376998167451
1 44968U 20001BG  23018.28569724  .00022160  00000-0  15012-2 0  9993
2 44968  53.0548  53.0299 0001722  77.9733 282.1449 15.06417653167624
1 44968U 20001BG  23018.35204375  .00032135  00000-0  21648-2 0  9994
2 44968  53.0545  52.7319 0001580  76.1857 283.9308 15.06427937167630
1 44968U 20001BG  23018.81646638  .00020837  00000-0  14129-2 0  9999
2 44968  53.0539  50.6475 0001676  77.8094 282.3083 15.06418899167708
1 44968U 20001BG  23018.81646638  .00020837  00000-0  14129-2 0  9999
2 44968  53.0539  50.6475 0001676  77.8094 282.3083 15.06418899167708
1 44968U 20001BG  23019.47992729  .00007435  00000-0  51719-3 0  9993
2 44968  53.0550  47.6665 0001896  94.2839 265.8367 15.06421150167808
1 44968U 20001BG  23019.47992729  .00007435  00000-0  51719-3 0  9993
2 44968  53.0550  47.6665 0001896  94.2839 265.8367 15.06421150167808
1 44968U 20001BG  23020.07705236 -.00003428  00000-0 -21138-3 0  9998
2 44968  53.0548  44.9883 0001304  84.9753 275.1385 15.06396569167890
1 44968U 20001BG  23020.47513342 -.00000856  00000-0 -38580-4 0  9999
2 44968  53.0554  43.2001 0001583  91.7549 268.3621 15.06401816167955
1 44968U 20001BG  23021.27130036  .00001507  00000-0  12003-3 0  9996
2 44968  53.0545  39.6259 0001679  97.0857 263.0323 15.06398110168073
1 44968U 20001BG  23022.39919424  .00010307  00000-0  70955-3 0  9994
2 44968  53.0543  34.5629 0001494  98.3070 261.8089 15.06414201168246
1 44968U 20001BG  23022.73093067  .00004272  00000-0  30551-3 0  9990
2 44968  53.0546  33.0732 0001557  99.9901 260.1264 15.06403189168293
1 44968U 20001BG  23023.06266846 -.00001068  00000-0 -52785-4 0  9990
2 44968  53.0541  31.5841 0001771  98.6819 261.4370 15.06393615168344
1 44968U 20001BG  23024.25691211  .00001222  00000-0  10091-3 0  9993
2 44968  53.0546  26.2234 0001557 101.5848 258.5316 15.06401921168521
1 44968U 20001BG  23024.72134419  .00000875  00000-0  77664-4 0  9990
2 44968  53.0548  24.1377 0001545 100.2358 259.8805 15.06394043168597
1 44968U 20001BG  23025.38481156  .00003211  00000-0  23436-3 0  9990
2 44968  53.0548  21.1565 0001576 103.5149 256.6015 15.06401454168695
1 44968U 20001BG  23025.71655026  .00000723  00000-0  67414-4 0  9996
2 44968  53.0567  19.6652 0001574 103.8394 256.2770 15.06393564168740
1 44968U 20001BG  23026.04829298  .00000010  00000-0  19581-4 0  9998
2 44968  53.0557  18.1785 0001471 112.5842 247.5302 15.06383443168795
1 44968U 20001BG  23026.38002824  .00000678  00000-0  64441-4 0  9998
2 44968  53.0549  16.6916 0001495  94.0724 266.0436 15.06389328168842
1 44968U 20001BG  23027.10983641  .00007743  00000-0  53798-3 0  9996
2 44968  53.0551  13.4162 0001483  88.8823 271.2335 15.06411605168953
1 44968U 20001BG  23027.37522035  .00019810  00000-0  13439-2 0  9996
2 44968  53.0553  12.2244 0001528  86.2635 273.8529 15.06431940168997
1 44968U 20001BG  23027.37522035  .00019810  00000-0  13439-2 0  9996
2 44968  53.0553  12.2244 0001528  86.2635 273.8529 15.06431940168997
1 44968U 20001BG  23028.23772800  .00008528  00000-0  59045-3 0  9997
2 44968  53.0554   8.3529 0001295  92.7052 267.4085 15.06415428169121
1 44968U 20001BG  23028.37042241  .00019983  00000-0  13562-2 0  9991
2 44968  53.0553   7.7581 0001217  94.8248 265.2879 15.06412493169143
1 44968U 20001BG  23028.90119850  .00012396  00000-0  84964-3 0  9997
2 44968  53.0549   5.3743 0001405  94.1494 265.9656 15.06398545169227
1 44968U 20001BG  23029.89640105  .00002192  00000-0  16598-3 0  9999
2 44968  53.0544   0.9066 0001632  83.9610 276.1565 15.06400783169376
1 44968U 20001BG  23030.29448093  .00001413  00000-0  11373-3 0  9998
2 44968  53.0544 359.1194 0001521  88.3030 271.8133 15.06401372169434
1 44968U 20001BG  23030.29448093  .00001413  00000-0  11373-3 0  9998
2 44968  53.0544 359.1194 0001521  88.3030 271.8133 15.06401372169434
1 44968U 20001BG  23030.89160496  .00000321  00000-0  40457-4 0  9995
2 44968  53.0545 356.4383 0001456 100.2165 259.8989 15.06396044169529
1 44968U 20001BG  23031.15699186  .00000500  00000-0  52429-4 0  9999
2 44968  53.0539 355.2466 0001368 103.5001 256.6141 15.06397065169561
1 44968U 20001BG  23031.28968398  .00002757  00000-0  20388-3 0  9991
2 44968  53.0543 354.6514 0001352  94.0277 266.0866 15.06403164169584
1 44968U 20001BG  23031.88680783  .00002854  00000-0  21042-3 0  9992
2 44968  53.0538 351.9703 0001435 100.2051 259.9100 15.06400721169678
